[{"OBJECT_NAME":"SHIYAN-6 01 (SY-6 01)","OBJECT_ID":"2018-094B","EPOCH":"2026-03-09T23:04:36.967872","MEAN_MOTION":15.28649156,"ECCENTRICITY":0.00144834,"INCLINATION":97.3669,"RA_OF_ASC_NODE":84.0964,"ARG_OF_PERICENTER":135.6758,"MEAN_ANOMALY":224.5644,"EPHEMERIS_TYPE":0,"CLASSIFICATION_TYPE":"U","NORAD_CAT_ID":43711,"ELEMENT_SET_NO":999,"REV_AT_EPOCH":40632,"BSTAR":0.00024768444,"MEAN_MOTION_DOT":6.847e-5,"MEAN_MOTION_DDOT":0},{"OBJECT_NAME":"STARLINK-31232","OBJECT_ID":"2024-017F","EPOCH":"2026-03-09T15:37:30.434880","MEAN_MOTION":15.30187107,"ECCENTRICITY":0.00011808,"INCLINATION":53.1603,"RA_OF_ASC_NODE":204.2623,"ARG_OF_PERICENTER":50.642,"MEAN_ANOMALY":309.4685,"EPHEMERIS_TYPE":0,"CLASSIFICATION_TYPE":"U","NORAD_CAT_ID":58831,"ELEMENT_SET_NO":999,"REV_AT_EPOCH":12005,"BSTAR":2.1441089e-5,"MEAN_MOTION_DOT":2.76e-6,"MEAN_MOTION_DDOT":0}]
